{
  "type": "FeatureCollection",
  "features": [
    {
      "type": "Feature",
      "properties": {
        "norad_id": 30445,
        "name": "FENGYUN 1C DEB",
        "group": "fengyun-1c-debris",
        "lat": 68.11552020625022,
        "lon": 134.80934140204687,
        "alt_km": 702.2658119383332,
        "timestamp": "2025-12-06T22:38:43.004715+00:00",
        "meta_object_name": "FENGYUN 1C DEB",
        "meta_object_id": "1999-025AFG",
        "meta_epoch": "2025-12-06T07:13:45.064992",
        "meta_mean_motion": 14.48684982,
        "meta_eccentricity": 0.01063369,
        "meta_inclination": 98.8344,
        "meta_ra_of_asc_node": 291.3582,
        "meta_arg_of_pericenter": 37.5378,
        "meta_mean_anomaly": 323.3178,
        "meta_ephemeris_type": 0,
        "meta_classification_type": "U",
        "meta_norad_cat_id": 30445,
        "meta_element_set_no": 999,
        "meta_rev_at_epoch": 99091,
        "meta_bstar": 0.0014248098,
        "meta_mean_motion_dot": 5.718e-05,
        "meta_mean_motion_ddot": 0,
        "tle_line1": "1 30445U 99025AFG 25340.30121603  .00005718  00000+0  14248-2 0  9992",
        "tle_line2": "2 30445  98.8344 291.3582 0106336  37.5378 323.3178 14.48684982990915"
      },
      "geometry": {
        "type": "Point",
        "coordinates": [
          134.80934140204687,
          68.11552020625022
        ]
      }
    },
    {
      "type": "Feature",
      "properties": {
        "norad_id": 30446,
        "name": "FENGYUN 1C DEB",
        "group": "fengyun-1c-debris",
        "lat": -27.21947098776105,
        "lon": 67.84105113661344,
        "alt_km": 769.0374421986617,
        "timestamp": "2025-12-06T22:38:43.004725+00:00",
        "meta_object_name": "FENGYUN 1C DEB",
        "meta_object_id": "1999-025AFH",
        "meta_epoch": "2025-12-06T04:29:15.686304",
        "meta_mean_motion": 14.44602254,
        "meta_eccentricity": 0.0035325,
        "meta_inclination": 98.6152,
        "meta_ra_of_asc_node": 62.602,
        "meta_arg_of_pericenter": 117.7014,
        "meta_mean_anomaly": 242.7767,
        "meta_ephemeris_type": 0,
        "meta_classification_type": "U",
        "meta_norad_cat_id": 30446,
        "meta_element_set_no": 999,
        "meta_rev_at_epoch": 98082,
        "meta_bstar": 0.0029329806,
        "meta_mean_motion_dot": 0.00010196,
        "meta_mean_motion_ddot": 0,
        "tle_line1": "1 30446U 99025AFH 25340.18698711  .00010196  00000+0  29330-2 0  9992",
        "tle_line2": "2 30446  98.6152  62.6020 0035325 117.7014 242.7767 14.44602254980829"
      },
      "geometry": {
        "type": "Point",
        "coordinates": [
          67.84105113661344,
          -27.21947098776105
        ]
      }
    },
    {
      "type": "Feature",
      "properties": {
        "norad_id": 30447,
        "name": "FENGYUN 1C DEB",
        "group": "fengyun-1c-debris",
        "lat": -25.334770714248418,
        "lon": 17.768620945387042,
        "alt_km": 749.6550677653022,
        "timestamp": "2025-12-06T22:38:43.004735+00:00",
        "meta_object_name": "FENGYUN 1C DEB",
        "meta_object_id": "1999-025AFJ",
        "meta_epoch": "2025-12-06T13:47:01.993632",
        "meta_mean_motion": 14.56386959,
        "meta_eccentricity": 0.0059891,
        "meta_inclination": 98.9714,
        "meta_ra_of_asc_node": 201.661,
        "meta_arg_of_pericenter": 48.8662,
        "meta_mean_anomaly": 21.7007,
        "meta_ephemeris_type": 0,
        "meta_classification_type": "U",
        "meta_norad_cat_id": 30447,
        "meta_element_set_no": 999,
        "meta_rev_at_epoch": 98006,
        "meta_bstar": 0.0042235516,
        "meta_mean_motion_dot": 0.00019197,
        "meta_mean_motion_ddot": 0,
        "tle_line1": "1 30447U 99025AFJ 25340.57432863  .00019197  00000+0  42236-2 0  9990",
        "tle_line2": "2 30447  98.9714 201.6610 0059891  48.8662  21.7007 14.56386959980066"
      },
      "geometry": {
        "type": "Point",
        "coordinates": [
          17.768620945387042,
          -25.334770714248418
        ]
      }
    },
    {
      "type": "Feature",
      "properties": {
        "norad_id": 30448,
        "name": "FENGYUN 1C DEB",
        "group": "fengyun-1c-debris",
        "lat": 12.02448444253929,
        "lon": 70.51023151463328,
        "alt_km": 764.5124225955542,
        "timestamp": "2025-12-06T22:38:43.004745+00:00",
        "meta_object_name": "FENGYUN 1C DEB",
        "meta_object_id": "1999-025AFK",
        "meta_epoch": "2025-12-06T12:37:39.009216",
        "meta_mean_motion": 14.35033722,
        "meta_eccentricity": 0.00171601,
        "meta_inclination": 98.8316,
        "meta_ra_of_asc_node": 71.9812,
        "meta_arg_of_pericenter": 31.8884,
        "meta_mean_anomaly": 345.3024,
        "meta_ephemeris_type": 0,
        "meta_classification_type": "U",
        "meta_norad_cat_id": 30448,
        "meta_element_set_no": 999,
        "meta_rev_at_epoch": 97249,
        "meta_bstar": 0.0035465198,
        "meta_mean_motion_dot": 0.00010092,
        "meta_mean_motion_ddot": 0,
        "tle_line1": "1 30448U 99025AFK 25340.52614594  .00010092  00000+0  35465-2 0  9990",
        "tle_line2": "2 30448  98.8316  71.9812 0017160  31.8884 345.3024 14.35033722972493"
      },
      "geometry": {
        "type": "Point",
        "coordinates": [
          70.51023151463328,
          12.02448444253929
        ]
      }
    },
    {
      "type": "Feature",
      "properties": {
        "norad_id": 30450,
        "name": "FENGYUN 1C DEB",
        "group": "fengyun-1c-debris",
        "lat": -55.19842150907822,
        "lon": 6.899186242405866,
        "alt_km": 663.3422590020709,
        "timestamp": "2025-12-06T22:38:43.004756+00:00",
        "meta_object_name": "FENGYUN 1C DEB",
        "meta_object_id": "1999-025AFM",
        "meta_epoch": "2025-12-06T13:37:49.772352",
        "meta_mean_motion": 14.61712544,
        "meta_eccentricity": 0.01888988,
        "meta_inclination": 98.0799,
        "meta_ra_of_asc_node": 354.7386,
        "meta_arg_of_pericenter": 227.736,
        "meta_mean_anomaly": 258.8172,
        "meta_ephemeris_type": 0,
        "meta_classification_type": "U",
        "meta_norad_cat_id": 30450,
        "meta_element_set_no": 999,
        "meta_rev_at_epoch": 99452,
        "meta_bstar": 0.0010886878,
        "meta_mean_motion_dot": 6.949e-05,
        "meta_mean_motion_ddot": 0,
        "tle_line1": "1 30450U 99025AFM 25340.56793718  .00006949  00000+0  10887-2 0  9990",
        "tle_line2": "2 30450  98.0799 354.7386 0188898 227.7360 258.8172 14.61712544994528"
      },
      "geometry": {
        "type": "Point",
        "coordinates": [
          6.899186242405866,
          -55.19842150907822
        ]
      }
    },
    {
      "type": "Feature",
      "properties": {
        "norad_id": 30452,
        "name": "FENGYUN 1C DEB",
        "group": "fengyun-1c-debris",
        "lat": 66.97885150684212,
        "lon": 96.13329373549092,
        "alt_km": 706.2275797661678,
        "timestamp": "2025-12-06T22:38:43.004766+00:00",
        "meta_object_name": "FENGYUN 1C DEB",
        "meta_object_id": "1999-025AFP",
        "meta_epoch": "2025-12-05T08:51:26.203392",
        "meta_mean_motion": 14.64062624,
        "meta_eccentricity": 0.00500561,
        "meta_inclination": 99.3204,
        "meta_ra_of_asc_node": 117.0909,
        "meta_arg_of_pericenter": 273.9421,
        "meta_mean_anomaly": 140.5983,
        "meta_ephemeris_type": 0,
        "meta_classification_type": "U",
        "meta_norad_cat_id": 30452,
        "meta_element_set_no": 999,
        "meta_rev_at_epoch": 97999,
        "meta_bstar": 0.007079347,
        "meta_mean_motion_dot": 0.00037978,
        "meta_mean_motion_ddot": 0,
        "tle_line1": "1 30452U 99025AFP 25339.36905328  .00037978  00000+0  70793-2 0  9998",
        "tle_line2": "2 30452  99.3204 117.0909 0050056 273.9421 140.5983 14.64062624979992"
      },
      "geometry": {
        "type": "Point",
        "coordinates": [
          96.13329373549092,
          66.97885150684212
        ]
      }
    },
    {
      "type": "Feature",
      "properties": {
        "norad_id": 30453,
        "name": "FENGYUN 1C DEB",
        "group": "fengyun-1c-debris",
        "lat": -56.74652388214806,
        "lon": -141.04886770124997,
        "alt_km": 733.9686300716685,
        "timestamp": "2025-12-06T22:38:43.004776+00:00",
        "meta_object_name": "FENGYUN 1C DEB",
        "meta_object_id": "1999-025AFQ",
        "meta_epoch": "2025-12-06T10:20:36.589920",
        "meta_mean_motion": 14.24684361,
        "meta_eccentricity": 0.01153784,
        "meta_inclination": 98.8138,
        "meta_ra_of_asc_node": 52.1237,
        "meta_arg_of_pericenter": 244.4851,
        "meta_mean_anomaly": 245.9269,
        "meta_ephemeris_type": 0,
        "meta_classification_type": "U",
        "meta_norad_cat_id": 30453,
        "meta_element_set_no": 999,
        "meta_rev_at_epoch": 97144,
        "meta_bstar": 0.0028984781,
        "meta_mean_motion_dot": 7.187e-05,
        "meta_mean_motion_ddot": 0,
        "tle_line1": "1 30453U 99025AFQ 25340.43097905  .00007187  00000+0  28985-2 0  9997",
        "tle_line2": "2 30453  98.8138  52.1237 0115378 244.4851 245.9269 14.24684361971448"
      },
      "geometry": {
        "type": "Point",
        "coordinates": [
          -141.04886770124997,
          -56.74652388214806
        ]
      }
    }
  ]
}